NUSAT-21 (ELISA)        
1 48920U 21059AT  22036.13763414  .00010814  00000+0  32979-3 0  9998
2 48920  97.3342 167.6353 0015061 158.8605  14.1679 15.34007705 34221
NUSAT-20 (GRACE)        
1 48921U 21059AU  22036.16899569  .00010974  00000+0  33333-3 0  9995
2 48921  97.3444 167.8954 0014378 176.7284 306.6159 15.34142121 34220
LANDSAT 9               
1 49260U 21088A   22036.13277130  .00000279  00000+0  71978-4 0  9990
2 49260  98.2031 108.4007 0001415  68.0051 292.1297 14.57116101 19006
CSG-2                   
1 51444U 22008A   22036.12600878  .00000363  00000+0  52206-4 0  9995
2 51444  97.8952 221.7108 0004743 131.7286 228.4344 14.82115885   614
SARSAT 7 (NOAA 15)      
1 25338U 98030A   22036.09689898  .00000093  00000+0  57197-4 0  9995
2 25338  98.6603  67.2614 0009727 328.2019  31.8573 14.26087538234405
METEOSAT-8 (MSG-1)      
1 27509U 02040B   22035.68386010  .00000126  00000+0  00000+0 0  9990
2 27509   7.7939  51.3582 0000779  19.7267 351.3242  1.00275449 71289
GPS BIIR-08             
1 27663U 03005A   22035.67353278 -.00000020  00000+0  00000+0 0  9996
2 27663  55.6030 278.3330 0125604  39.5603 339.2547  2.00572405139354
GPS BIIR-11             
1 28190U 04009A   22035.74042102 -.00000093  00000+0  00000+0 0  9996
2 28190  56.0787 339.2761 0087372 115.3331 111.2834  2.00562987130980
GPS BIIR-13             
1 28474U 04045A   22035.87282083 -.00000086  00000+0  00000+0 0  9991
2 28474  55.3030  28.7655 0208699 276.9399 313.2069  2.00562362126475
SARSAT 10 (NOAA 18)     
1 28654U 05018A   22036.11728839  .00000178  00000+0  12004-3 0  9996
2 28654  98.9658 106.5779 0013879 349.2671  10.8202 14.12684658861381
GPS BIIR-14M            
1 28874U 05038A   22035.86329307 -.00000092  00000+0  00000+0 0  9995
2 28874  56.1503 336.6991 0138938 273.8175  62.7409  2.00554867119874
METEOSAT-9 (MSG-2)      
1 28912U 05049B   22032.89331964  .00000018  00000+0  00000+0 0  9999
2 28912   5.7184  67.1598 0002521  23.0825   6.8473  1.00358036 59036
GOES 13                 
1 29155U 06018A   22035.79080699  .00000027  00000+0  00000+0 0  9994
2 29155   0.4523  99.0750 0004502 155.7977 226.3963  1.00268744 27406
GPS BIIR-16M            
1 29601U 06052A   22035.45891481 -.00000017  00000+0  00000+0 0  9990
2 29601  55.6060 277.2743 0084328  70.7479 290.2282  2.00571247111447
GPS BIIR-17M            
1 32260U 07047A   22035.76543838  .00000004  00000+0  00000+0 0  9999
2 32260  53.2802 146.0427 0137389  61.1289 300.2352  2.00555816104852
GPS BIIR-18M            
1 32384U 07062A   22035.87117703 -.00000093  00000+0  00000+0 0  9992
2 32384  56.2652 337.4430 0016306 135.0557  72.2810  2.00554408103556
SARSAT 12 (NOAA 19)     
1 33591U 09005A   22036.10376442  .00000078  00000+0  67415-4 0  9996
2 33591  99.1650  67.3538 0013694 196.1741 163.8995 14.12527521669762
GOES 14                 
1 35491U 09033A   22035.78521439 -.00000101  00000+0  00000+0 0  9999
2 35491   0.0337 348.8315 0013719 238.8275  85.4373  1.00271132 46136
GOES 15                 
1 36411U 10008A   22035.72185583  .00000045  00000+0  00000+0 0  9992
2 36411   0.0189 235.2281 0001250 130.8057 260.4475  1.00274999 43691
GPS BIIF-2              
1 37753U 11036A   22035.87272014 -.00000080  00000+0  00000+0 0  9996
2 37753  56.5450  33.8671 0111683  49.6622 305.2034  2.00564564 77316
GSAT0101 (GALILEO-PFM)  
1 37846U 11060A   22035.09628467 -.00000083  00000+0  00000+0 0  9990
2 37846  56.9467  24.9619 0003658 332.6838  27.2949  1.70475045 63941
GSAT0102 (GALILEO-FM2)  
1 37847U 11060B   22035.30917056 -.00000083  00000+0  00000+0 0  9990
2 37847  56.9475  24.9556 0005301 315.2153 221.9178  1.70475321 63950
LUCH 5A                 
1 37951U 11074B   22035.92425352 -.00000058  00000+0  00000+0 0  9994
2 37951   4.6858 100.3260 0002570 237.9116 296.4125  1.00273076 37211
METEOSAT-10 (MSG-3)     
1 38552U 12035B   22035.82116156  .00000053  00000+0  00000+0 0  9992
2 38552   1.3529  32.1462 0001485 225.6956 182.3879  1.00262528 34883
SARSAT 13 (METOP-B)     
1 38771U 12049A   22036.14930622  .00000071  00000+0  52163-4 0  9990
2 38771  98.6843  97.9078 0002003  81.0620 306.4726 14.21494124486938
GPS BIIF-3              
1 38833U 12053A   22035.36494273  .00000040  00000+0  00000+0 0  9998
2 38833  53.5443 208.8016 0121672  45.3976 315.5622  2.00560313 67477
GSAT0103 (GALILEO-FM3)  
1 38857U 12055A   22034.55003073 -.00000008  00000+0  00000+0 0  9995
2 38857  55.1013 145.3812 0003121 245.7900 114.1594  1.70473555 57820
GSAT0104 (GALILEO-FM4)  
1 38858U 12055B   22034.52036375 -.00000008  00000+0  00000+0 0  9994
2 38858  55.1015 145.3836 0001248 199.7312 160.2458  1.70473825 57823
GPS BIIF-4              
1 39166U 13023A   22035.22535700 -.00000089  00000+0  00000+0 0  9996
2 39166  55.7833 333.1492 0100336  35.3904 325.2808  2.00566661 63919
INSAT-3D                
1 39216U 13038B   22036.12263743 -.00000164  00000+0  00000+0 0  9997
2 39216   0.0044 129.3047 0000678 205.1767 287.0110  1.00269581 31326
GPS BIIF-5              
1 39533U 14008A   22035.22094802  .00000039  00000+0  00000+0 0  9995
2 39533  53.6413 214.2998 0055689 204.6732 155.0426  2.00573539 57716
LUCH 5V                 
1 39727U 14023A   22035.83808191 -.00000277  00000+0  00000+0 0  9993
2 39727   1.1933  72.4328 0002286 289.3067 169.6502  1.00270057 28388
GPS BIIF-6              
1 39741U 14026A   22035.50087657 -.00000080  00000+0  00000+0 0  9994
2 39741  56.5092  33.4078 0028645 301.6750  58.0598  2.00565375 56576
GPS BIIF-7              
1 40105U 14045A   22035.59348055  .00000011  00000+0  00000+0 0  9995
2 40105  54.6649 152.1094 0020667 108.9288 251.2798  2.00568661 54114
GSAT0201 (GALILEO 5)    
1 40128U 14050A   22035.07634473 -.00000112  00000+0  00000+0 0  9994
2 40128  50.3633 337.5978 1631500 119.3255 257.9545  1.85519186 48745
GSAT0202 (GALILEO 6)    
1 40129U 14050B   22035.33783784 -.00000113  00000+0  00000+0 0  9995
2 40129  50.3901 336.6441 1628522 120.1438 256.9912  1.85519837 50914
GPS BIIF-8              
1 40294U 14068A   22035.46718767 -.00000034  00000+0  00000+0 0  9992
2 40294  55.7146  93.1914 0036756  53.1942 307.2113  2.00562173 53244
GLONASS-K 2             
1 40315U 14075A   22035.56572716  .00000039  00000+0  00000+0 0  9991
2 40315  63.7166 245.8272 0016119 206.4624  53.4917  2.13101373 55893
GPS BIIF-9              
1 40534U 15013A   22035.59907107 -.00000010  00000+0  00000+0 0  9996
2 40534  53.7887 270.1985 0067644  18.9257 341.3873  2.00560658 49865
GSAT0203 (GALILEO 7)    
1 40544U 15017A   22034.87754145 -.00000083  00000+0  00000+0 0  9993
2 40544  56.7416  25.0193 0004986 271.5616  88.3797  1.70475907 42023
GSAT0204 (GALILEO 8)    
1 40545U 15017B   22034.54353621 -.00000082  00000+0  00000+0 0  9991
2 40545  56.7473  25.0404 0004382 261.1061  98.8432  1.70475557  5067
GPS BIIF-10             
1 40730U 15033A   22035.76167477 -.00000091  00000+0  00000+0 0  9992
2 40730  55.2848 332.0199 0072172   3.7473 356.3194  2.00558996 48038
METEOSAT-11 (MSG-4)     
1 40732U 15034A   22035.81915556 -.00000014  00000+0  00000+0 0  9995
2 40732   0.2173 335.9756 0001238  95.1201 358.5077  1.00276326 24054
GSAT0205 (GALILEO 9)    
1 40889U 15045A   22033.72434279  .00000020  00000+0  00000+0 0  9992
2 40889  55.7117 265.6843 0006369  21.6285 338.4742  1.70474845 39811
GSAT0206 (GALILEO 10)   
1 40890U 15045B   22032.18508132  .00000031  00000+0  00000+0 0  9995
2 40890  55.7124 265.7229 0004572  16.2903 343.8082  1.70473055 39810
GPS BIIF-11             
1 41019U 15062A   22035.31269297 -.00000033  00000+0  00000+0 0  9995
2 41019  55.7047  93.0376 0076202 216.8781 142.6629  2.00563018 45861
ELEKTRO-L 2             
1 41105U 15074A   22035.88805795 -.00000125  00000+0  00000+0 0  9997
2 41105   2.6556  89.7098 0001241 149.8609 200.6503  1.00270674 22538
GSAT0209 (GALILEO 12)   
1 41174U 15079A   22035.29320498 -.00000007  00000+0  00000+0 0  9994
2 41174  55.1174 145.0634 0002878 310.6723  49.2897  1.70473608 37603
GSAT0208 (GALILEO 11)   
1 41175U 15079B   22035.51284917 -.00000007  00000+0  00000+0 0  9995
2 41175  55.1157 145.0560 0002113 309.8508  50.1187  1.70473615 38024
GPS BIIF-12             
1 41328U 16007A   22035.40932613  .00000011  00000+0  00000+0 0  9992
2 41328  54.8861 152.7558 0056902 226.3838 133.1265  2.00551936 43873
GSAT0211 (GALILEO 14)   
1 41549U 16030A   22034.45929872  .00000016  00000+0  00000+0 0  9995
2 41549  55.8560 265.5786 0004711 352.9595   7.1053  1.70474620 35481
GSAT0210 (GALILEO 13)   
1 41550U 16030B   22032.99226489  .00000026  00000+0  00000+0 0  9999
2 41550  55.8563 265.6207 0003048 334.0119  26.0529  1.70474700 35454
INSAT-3DR               
1 41752U 16054A   22035.85216618 -.00000086  00000+0  00000+0 0  9997
2 41752   0.1257  97.6800 0012811 178.2368 239.8019  1.00271083 19840
GSAT0207 (GALILEO 15)   
1 41859U 16069A   22035.58565103 -.00000007  00000+0  00000+0 0  9990
2 41859  54.7770 145.2694 0002992 288.9794  70.9761  1.70473611 32453
GSAT0212 (GALILEO 16)   
1 41860U 16069B   22034.85248293 -.00000007  00000+0  00000+0 0  9999
2 41860  54.7745 145.2876 0001737 328.6553  31.3182  1.70473573 32477
GSAT0213 (GALILEO 17)   
1 41861U 16069C   22034.04478216 -.00000009  00000+0  00000+0 0  9993
2 41861  54.7767 145.3149 0002983 256.5810 103.3644  1.70473593 32324
GSAT0214 (GALILEO 18)   
1 41862U 16069D   22034.77847456 -.00000008  00000+0  00000+0 0  9999
2 41862  54.7752 145.2893 0002081 256.6532 103.3070  1.70473710 32464
GOES 16                 
1 41866U 16071A   22035.87602184 -.00000257  00000+0  00000+0 0  9991
2 41866   0.0884 269.4832 0000877  83.9935  21.6691  1.00272580 19134
GSAT-17                 
1 42815U 17040B   22035.72894863 -.00000268  00000+0  00000+0 0  9996
2 42815   0.1079 275.1341 0006053 352.6957 222.9347  1.00273886 16813
